STARLINK-36729          
1 67905U 26036B   26077.58334491  .00040424  00000+0  69217-3 0  9994
2 67905  43.0004 196.5341 0001240 281.9527 130.9542 15.50544278  5077
STARLINK-36763          
1 67906U 26036C   26077.58334491  .00038900  00000+0  66627-3 0  9993
2 67906  43.0002 196.4603 0002065 285.3611 157.3306 15.50549938  5073
STARLINK-36742          
1 67907U 26036D   26077.58334491  .00046177  00000+0  78915-3 0  9992
2 67907  43.0004 196.5115 0001094 294.3641 127.7449 15.50548728  5074
STARLINK-36827          
1 67908U 26036E   26077.58334491 -.01992431  00000+0 -35498-1 0  9996
2 67908  43.0001 196.2015 0001455 273.6462 273.7627 15.52461351  5078
STARLINK-36822          
1 67909U 26036F   26077.58334491  .00039421  00000+0  67521-3 0  9999
2 67909  43.0001 196.4533 0001770 273.9833 171.5400 15.50544270  5075
STARLINK-36847          
1 67910U 26036G   26077.58334491  .00033460  00000+0  57401-3 0  9994
2 67910  43.0003 196.5000 0001732 313.8643 112.5048 15.50564867  5077
STARLINK-36736          
1 67911U 26036H   26077.58334491 -.01887523  00000+0 -30068-1 0  9993
2 67911  42.9999 195.9650 0001299 275.5359   7.5913 15.55859551  5076
STARLINK-36676          
1 67912U 26036J   26077.58334491 -.01865152  00000+0 -32098-1 0  9993
2 67912  43.0003 196.0781 0001172 284.9511 312.9728 15.53738429  5071
STARLINK-36690          
1 67913U 26036K   26077.58334491 -.01948793  00000+0 -32968-1 0  9993
2 67913  43.0000 196.0626 0000813 283.8272 319.3719 15.53811443  5079
STARLINK-36724          
1 67914U 26036L   26077.58334491 -.01886822  00000+0 -32002-1 0  9997
2 67914  42.9998 196.0187 0001270 282.2949 338.7404 15.54173754  5071
STARLINK-36723          
1 67915U 26036M   26077.58334491 -.01887914  00000+0 -30461-1 0  9998
2 67915  42.9998 195.9519 0001193 273.1179  15.1010 15.55519588  5076
STARLINK-36721          
1 67916U 26036N   26077.58334491 -.01890537  00000+0 -30467-1 0  9990
2 67916  43.0001 195.9280 0001202 272.1244  25.4487 15.55556225  5073
