CCSDS_OMM_VERS = 2.0
CREATION_DATE  = 
ORIGINATOR     = 

OBJECT_NAME    = STARLINK-36729
OBJECT_ID      = 2026-036B
CENTER_NAME    = EARTH
REF_FRAME      = TEME
TIME_SYSTEM    = UTC
MEAN_ELEMENT_THEORY = SGP/SGP4

EPOCH          = 2026-03-18T14:00:01.000224
MEAN_MOTION    = 15.50544278
ECCENTRICITY   = .00012405
INCLINATION    = 43.0004
RA_OF_ASC_NODE = 196.5341
ARG_OF_PERICENTER = 281.9527
MEAN_ANOMALY   = 130.9542

EPHEMERIS_TYPE = 0
CLASSIFICATION_TYPE = U
NORAD_CAT_ID   = 67905
ELEMENT_SET_NO = 999
REV_AT_EPOCH   = 507
BSTAR          = .69217384E-3
MEAN_MOTION_DOT = .40424E-3
MEAN_MOTION_DDOT = 0

CCSDS_OMM_VERS = 2.0
CREATION_DATE  = 
ORIGINATOR     = 

OBJECT_NAME    = STARLINK-36763
OBJECT_ID      = 2026-036C
CENTER_NAME    = EARTH
REF_FRAME      = TEME
TIME_SYSTEM    = UTC
MEAN_ELEMENT_THEORY = SGP/SGP4

EPOCH          = 2026-03-18T14:00:01.000224
MEAN_MOTION    = 15.50549938
ECCENTRICITY   = .00020654
INCLINATION    = 43.0002
RA_OF_ASC_NODE = 196.4603
ARG_OF_PERICENTER = 285.3611
MEAN_ANOMALY   = 157.3306

EPHEMERIS_TYPE = 0
CLASSIFICATION_TYPE = U
NORAD_CAT_ID   = 67906
ELEMENT_SET_NO = 999
REV_AT_EPOCH   = 507
BSTAR          = .66627496E-3
MEAN_MOTION_DOT = .389E-3
MEAN_MOTION_DDOT = 0

CCSDS_OMM_VERS = 2.0
CREATION_DATE  = 
ORIGINATOR     = 

OBJECT_NAME    = STARLINK-36742
OBJECT_ID      = 2026-036D
CENTER_NAME    = EARTH
REF_FRAME      = TEME
TIME_SYSTEM    = UTC
MEAN_ELEMENT_THEORY = SGP/SGP4

EPOCH          = 2026-03-18T14:00:01.000224
MEAN_MOTION    = 15.50548728
ECCENTRICITY   = .00010941
INCLINATION    = 43.0004
RA_OF_ASC_NODE = 196.5115
ARG_OF_PERICENTER = 294.3641
MEAN_ANOMALY   = 127.7449

EPHEMERIS_TYPE = 0
CLASSIFICATION_TYPE = U
NORAD_CAT_ID   = 67907
ELEMENT_SET_NO = 999
REV_AT_EPOCH   = 507
BSTAR          = .78915114E-3
MEAN_MOTION_DOT = .46177E-3
MEAN_MOTION_DDOT = 0

CCSDS_OMM_VERS = 2.0
CREATION_DATE  = 
ORIGINATOR     = 

OBJECT_NAME    = STARLINK-36827
OBJECT_ID      = 2026-036E
CENTER_NAME    = EARTH
REF_FRAME      = TEME
TIME_SYSTEM    = UTC
MEAN_ELEMENT_THEORY = SGP/SGP4

EPOCH          = 2026-03-18T14:00:01.000224
MEAN_MOTION    = 15.52461351
ECCENTRICITY   = .00014557
INCLINATION    = 43.0001
RA_OF_ASC_NODE = 196.2015
ARG_OF_PERICENTER = 273.6462
MEAN_ANOMALY   = 273.7627

EPHEMERIS_TYPE = 0
CLASSIFICATION_TYPE = U
NORAD_CAT_ID   = 67908
ELEMENT_SET_NO = 999
REV_AT_EPOCH   = 507
BSTAR          = -.35498091E-1
MEAN_MOTION_DOT = -.1992431E-1
MEAN_MOTION_DDOT = 0

CCSDS_OMM_VERS = 2.0
CREATION_DATE  = 
ORIGINATOR     = 

OBJECT_NAME    = STARLINK-36822
OBJECT_ID      = 2026-036F
CENTER_NAME    = EARTH
REF_FRAME      = TEME
TIME_SYSTEM    = UTC
MEAN_ELEMENT_THEORY = SGP/SGP4

EPOCH          = 2026-03-18T14:00:01.000224
MEAN_MOTION    = 15.50544270
ECCENTRICITY   = .00017703
INCLINATION    = 43.0001
RA_OF_ASC_NODE = 196.4533
ARG_OF_PERICENTER = 273.9833
MEAN_ANOMALY   = 171.5400

EPHEMERIS_TYPE = 0
CLASSIFICATION_TYPE = U
NORAD_CAT_ID   = 67909
ELEMENT_SET_NO = 999
REV_AT_EPOCH   = 507
BSTAR          = .67520863E-3
MEAN_MOTION_DOT = .39421E-3
MEAN_MOTION_DDOT = 0

CCSDS_OMM_VERS = 2.0
CREATION_DATE  = 
ORIGINATOR     = 

OBJECT_NAME    = STARLINK-36847
OBJECT_ID      = 2026-036G
CENTER_NAME    = EARTH
REF_FRAME      = TEME
TIME_SYSTEM    = UTC
MEAN_ELEMENT_THEORY = SGP/SGP4

EPOCH          = 2026-03-18T14:00:01.000224
MEAN_MOTION    = 15.50564867
ECCENTRICITY   = .0001732
INCLINATION    = 43.0003
RA_OF_ASC_NODE = 196.5000
ARG_OF_PERICENTER = 313.8643
MEAN_ANOMALY   = 112.5048

EPHEMERIS_TYPE = 0
CLASSIFICATION_TYPE = U
NORAD_CAT_ID   = 67910
ELEMENT_SET_NO = 999
REV_AT_EPOCH   = 507
BSTAR          = .57401297E-3
MEAN_MOTION_DOT = .3346E-3
MEAN_MOTION_DDOT = 0

CCSDS_OMM_VERS = 2.0
CREATION_DATE  = 
ORIGINATOR     = 

OBJECT_NAME    = STARLINK-36736
OBJECT_ID      = 2026-036H
CENTER_NAME    = EARTH
REF_FRAME      = TEME
TIME_SYSTEM    = UTC
MEAN_ELEMENT_THEORY = SGP/SGP4

EPOCH          = 2026-03-18T14:00:01.000224
MEAN_MOTION    = 15.55859551
ECCENTRICITY   = .00012991
INCLINATION    = 42.9999
RA_OF_ASC_NODE = 195.9650
ARG_OF_PERICENTER = 275.5359
MEAN_ANOMALY   = 7.5913

EPHEMERIS_TYPE = 0
CLASSIFICATION_TYPE = U
NORAD_CAT_ID   = 67911
ELEMENT_SET_NO = 999
REV_AT_EPOCH   = 507
BSTAR          = -.30068061E-1
MEAN_MOTION_DOT = -.1887523E-1
MEAN_MOTION_DDOT = 0

CCSDS_OMM_VERS = 2.0
CREATION_DATE  = 
ORIGINATOR     = 

OBJECT_NAME    = STARLINK-36676
OBJECT_ID      = 2026-036J
CENTER_NAME    = EARTH
REF_FRAME      = TEME
TIME_SYSTEM    = UTC
MEAN_ELEMENT_THEORY = SGP/SGP4

EPOCH          = 2026-03-18T14:00:01.000224
MEAN_MOTION    = 15.53738429
ECCENTRICITY   = .00011727
INCLINATION    = 43.0003
RA_OF_ASC_NODE = 196.0781
ARG_OF_PERICENTER = 284.9511
MEAN_ANOMALY   = 312.9728

EPHEMERIS_TYPE = 0
CLASSIFICATION_TYPE = U
NORAD_CAT_ID   = 67912
ELEMENT_SET_NO = 999
REV_AT_EPOCH   = 507
BSTAR          = -.32098019E-1
MEAN_MOTION_DOT = -.1865152E-1
MEAN_MOTION_DDOT = 0

CCSDS_OMM_VERS = 2.0
CREATION_DATE  = 
ORIGINATOR     = 

OBJECT_NAME    = STARLINK-36690
OBJECT_ID      = 2026-036K
CENTER_NAME    = EARTH
REF_FRAME      = TEME
TIME_SYSTEM    = UTC
MEAN_ELEMENT_THEORY = SGP/SGP4

EPOCH          = 2026-03-18T14:00:01.000224
MEAN_MOTION    = 15.53811443
ECCENTRICITY   = .00008133
INCLINATION    = 43.0000
RA_OF_ASC_NODE = 196.0626
ARG_OF_PERICENTER = 283.8272
MEAN_ANOMALY   = 319.3719

EPHEMERIS_TYPE = 0
CLASSIFICATION_TYPE = U
NORAD_CAT_ID   = 67913
ELEMENT_SET_NO = 999
REV_AT_EPOCH   = 507
BSTAR          = -.32967573E-1
MEAN_MOTION_DOT = -.1948793E-1
MEAN_MOTION_DDOT = 0

CCSDS_OMM_VERS = 2.0
CREATION_DATE  = 
ORIGINATOR     = 

OBJECT_NAME    = STARLINK-36724
OBJECT_ID      = 2026-036L
CENTER_NAME    = EARTH
REF_FRAME      = TEME
TIME_SYSTEM    = UTC
MEAN_ELEMENT_THEORY = SGP/SGP4

EPOCH          = 2026-03-18T14:00:01.000224
MEAN_MOTION    = 15.54173754
ECCENTRICITY   = .00012704
INCLINATION    = 42.9998
RA_OF_ASC_NODE = 196.0187
ARG_OF_PERICENTER = 282.2949
MEAN_ANOMALY   = 338.7404

EPHEMERIS_TYPE = 0
CLASSIFICATION_TYPE = U
NORAD_CAT_ID   = 67914
ELEMENT_SET_NO = 999
REV_AT_EPOCH   = 507
BSTAR          = -.32001506E-1
MEAN_MOTION_DOT = -.1886822E-1
MEAN_MOTION_DDOT = 0

CCSDS_OMM_VERS = 2.0
CREATION_DATE  = 
ORIGINATOR     = 

OBJECT_NAME    = STARLINK-36723
OBJECT_ID      = 2026-036M
CENTER_NAME    = EARTH
REF_FRAME      = TEME
TIME_SYSTEM    = UTC
MEAN_ELEMENT_THEORY = SGP/SGP4

EPOCH          = 2026-03-18T14:00:01.000224
MEAN_MOTION    = 15.55519588
ECCENTRICITY   = .00011932
INCLINATION    = 42.9998
RA_OF_ASC_NODE = 195.9519
ARG_OF_PERICENTER = 273.1179
MEAN_ANOMALY   = 15.1010

EPHEMERIS_TYPE = 0
CLASSIFICATION_TYPE = U
NORAD_CAT_ID   = 67915
ELEMENT_SET_NO = 999
REV_AT_EPOCH   = 507
BSTAR          = -.30461201E-1
MEAN_MOTION_DOT = -.1887914E-1
MEAN_MOTION_DDOT = 0

CCSDS_OMM_VERS = 2.0
CREATION_DATE  = 
ORIGINATOR     = 

OBJECT_NAME    = STARLINK-36721
OBJECT_ID      = 2026-036N
CENTER_NAME    = EARTH
REF_FRAME      = TEME
TIME_SYSTEM    = UTC
MEAN_ELEMENT_THEORY = SGP/SGP4

EPOCH          = 2026-03-18T14:00:01.000224
MEAN_MOTION    = 15.55556225
ECCENTRICITY   = .00012024
INCLINATION    = 43.0001
RA_OF_ASC_NODE = 195.9280
ARG_OF_PERICENTER = 272.1244
MEAN_ANOMALY   = 25.4487

EPHEMERIS_TYPE = 0
CLASSIFICATION_TYPE = U
NORAD_CAT_ID   = 67916
ELEMENT_SET_NO = 999
REV_AT_EPOCH   = 507
BSTAR          = -.30467349E-1
MEAN_MOTION_DOT = -.1890537E-1
MEAN_MOTION_DDOT = 0

